NORAD_CAT_ID,OBJECT_NAME,OBJECT_TYPE,EPOCH,MEAN_MOTION,ECCENTRICITY,INCLINATION,RA_OF_ASC_NODE,ARG_OF_PERICENTER,MEAN_ANOMALY,BSTAR,MEAN_MOTION_DOT,MEAN_MOTION_DDOT,TLE_LINE0,TLE_LINE1,TLE_LINE2,SEMIMAJOR_AXIS,PERIOD,APOGEE,PERIGEE,DECAYED
52299.0,STARLINK-3759,PAYLOAD,2023-01-16 12:47:49,15.08843501,0.0002661,53.2149,213.4078,42.9325,317.1874,0.00031097,4.665e-05,0.0,0 STARLINK-3759,1 52299U 22041AQ  23016.53321242  .00004665  00000-0  31097-3 0  9994,2 52299  53.2149 213.4078 0002661  42.9325 317.1874 15.08843501 41177,6917.87,95.437,541.576,537.894,0.0
52299.0,STARLINK-3759,PAYLOAD,2023-01-16 19:09:21,15.08849046,0.0002667,53.214,212.218,43.4483,316.6719,0.00043565,6.654e-05,0.0,0 STARLINK-3759,1 52299U 22041AQ  23016.79817087  .00006654  00000-0  43565-3 0  9992,2 52299  53.2140 212.2180 0002667  43.4483 316.6719 15.08849046 42438,6917.853,95.437,541.563,537.873,0.0
52299.0,STARLINK-3759,PAYLOAD,2023-01-17 12:38:36,15.08846866,0.0002759,53.2139,208.9468,49.4052,310.718,0.00023907,3.519e-05,0.0,0 STARLINK-3759,1 52299U 22041AQ  23017.52681048  .00003519  00000-0  23907-3 0  9995,2 52299  53.2139 208.9468 0002759  49.4052 310.7180 15.08846866 42543,6917.859,95.437,541.633,537.816,0.0
52299.0,STARLINK-3759,PAYLOAD,2023-01-17 19:00:08,15.08847082,0.0002671,53.2138,207.7571,49.282,310.8403,0.00019918,2.884e-05,0.0,0 STARLINK-3759,1 52299U 22041AQ  23017.79176944  .00002884  00000-0  19918-3 0  9999,2 52299  53.2138 207.7571 0002671  49.2820 310.8403 15.08847082 41367,6917.859,95.437,541.572,537.876,0.0
52299.0,STARLINK-3759,PAYLOAD,2023-01-18 07:43:13,15.08846686,0.0002753,53.2133,205.3782,49.8042,310.3191,0.00017376,2.479e-05,0.0,0 STARLINK-3759,1 52299U 22041AQ  23018.32168875  .00002479  00000-0  17376-3 0  9999,2 52299  53.2133 205.3782 0002753  49.8042 310.3191 15.08846686 41440,6917.86,95.437,541.629,537.82,0.0
52299.0,STARLINK-3759,PAYLOAD,2023-01-18 14:04:46,15.08844273,0.0002751999999999,53.2133,204.1885,50.945,309.1786,0.00012562,1.712e-05,0.0,0 STARLINK-3759,1 52299U 22041AQ  23018.58664908  .00001712  00000-0  12562-3 0  9996,2 52299  53.2133 204.1885 0002752  50.9450 309.1786 15.08844273 42702,6917.866999999999,95.437,541.636,537.8290000000001,0.0
52299.0,STARLINK-3759,PAYLOAD,2023-01-18 18:50:55,15.08848137,0.0002719,53.2135,203.296,51.6991,308.4245,0.00016285,2.305e-05,0.0,0 STARLINK-3759,1 52299U 22041AQ  23018.78536713  .00002305  00000-0  16285-3 0  9995,2 52299  53.2135 203.2960 0002719  51.6991 308.4245 15.08848137 41512,6917.856,95.437,541.601,537.84,0.0
52299.0,STARLINK-3759,PAYLOAD,2023-01-19 07:34:00,15.088417000000002,0.0002806,53.2137,200.917,52.4239,307.7008,8.523399999999999e-05,1.068e-05,0.0,0 STARLINK-3759,1 52299U 22041AQ  23019.31528925  .00001068  00000-0  85234-4 0  9997,2 52299  53.2137 200.9170 0002806  52.4239 307.7008 15.08841700 41598,6917.875,95.437,541.681,537.799,0.0
52299.0,STARLINK-3759,PAYLOAD,2023-01-19 18:41:43,15.08838779,0.0002582,53.2146,198.8354,50.6597,309.4623,0.00010232,1.34e-05,0.0,0 STARLINK-3759,1 52299U 22041AQ  23019.77897082  .00001340  00000-0  10232-3 0  9998,2 52299  53.2146 198.8354 0002582  50.6597 309.4623 15.08838779 42882,6917.884,95.438,541.535,537.9630000000001,0.0
52299.0,STARLINK-3759,PAYLOAD,2023-01-20 12:10:57,15.08840593,0.0002603,53.2146,195.565,53.7668,306.3565,8.1328e-05,1.006e-05,0.0,0 STARLINK-3759,1 52299U 22041AQ  23020.50760947  .00001006  00000-0  81328-4 0  9994,2 52299  53.2146 195.5650 0002603  53.7668 306.3565 15.08840593 41777,6917.879,95.438,541.544,537.943,0.0
52299.0,STARLINK-3759,PAYLOAD,2023-01-20 21:43:15,15.08848431,0.0002686,53.2144,193.7805,54.4904,305.6338,0.00014832,2.073e-05,0.0,0 STARLINK-3759,1 52299U 22041AQ  23020.90504480  .00002073  00000-0  14832-3 0  9996,2 52299  53.2144 193.7805 0002686  54.4904 305.6338 15.08848431 43051,6917.855,95.437,541.578,537.861,0.0
52299.0,STARLINK-3759,PAYLOAD,2023-01-21 10:26:21,15.08831394,0.0002759,53.2147,191.4014,59.5559,300.5705,7.7702e-05,9.48e-06,0.0,0 STARLINK-3759,1 52299U 22041AQ  23021.43497653  .00000948  00000-0  77702-4 0  9993,2 52299  53.2147 191.4014 0002759  59.5559 300.5705 15.08831394 43135,6917.906999999999,95.438,541.68,537.863,0.0
52299.0,STARLINK-3759,PAYLOAD,2023-01-22 11:52:31,15.088403,0.0002487,53.216,186.6443,59.9625,300.1613,9.4657e-05,1.218e-05,0.0,0 STARLINK-3759,1 52299U 22041AQ  23022.49481317  .00001218  00000-0  94657-4 0  9999,2 52299  53.2160 186.6443 0002487  59.9625 300.1613 15.08840300 43296,6917.879,95.438,541.465,538.024,0.0
52299.0,STARLINK-3759,PAYLOAD,2023-01-23 16:29:28,15.0884057,0.0002396999999999,53.2153,181.2913,64.5154,295.6086,0.00014431,2.009e-05,0.0,0 STARLINK-3759,1 52299U 22041AQ  23023.68713189  .00002009  00000-0  14431-3 0  9996,2 52299  53.2153 181.2913 0002397  64.5154 295.6086 15.08840570 43471,6917.879,95.438,541.4019999999999,538.085,0.0
52299.0,STARLINK-3759,PAYLOAD,2023-01-25 03:27:57,15.08843443,0.0002171999999999,53.2161,174.7494,68.0217,292.1006,7.0475e-05,8.34e-06,0.0,0 STARLINK-3759,1 52299U 22041AQ  23025.14441046  .00000834  00000-0  70475-4 0  9994,2 52299  53.2161 174.7494 0002172  68.0217 292.1006 15.08843443 43691,6917.87,95.437,541.237,538.232,0.0
52299.0,STARLINK-3759,PAYLOAD,2023-01-25 09:49:30,15.08834566,0.0002273,53.2154,173.5607,69.0456,291.0779,5.3481000000000005e-05,5.63e-06,0.0,0 STARLINK-3759,1 52299U 22041AQ  23025.40937677  .00000563  00000-0  53481-4 0  9990,2 52299  53.2154 173.5607 0002273  69.0456 291.0779 15.08834566 43730,6917.897,95.438,541.3340000000001,538.19,0.0
52299.0,STARLINK-3759,PAYLOAD,2023-01-25 13:00:16,15.08833903,0.0002320999999999,53.2153,172.9653,71.2118,288.9126,4.9519e-05,5e-06,0.0,0 STARLINK-3759,1 52299U 22041AQ  23025.54185804  .00000500  00000-0  49519-4 0  9990,2 52299  53.2153 172.9653 0002321  71.2118 288.9126 15.08833903 42539,6917.899,95.438,541.37,538.158,0.0
52299.0,STARLINK-3759,PAYLOAD,2023-01-25 16:11:02,15.08838587,0.0002204,53.2158,172.3708,70.6366,289.4865,8.075e-05,9.97e-06,0.0,0 STARLINK-3759,1 52299U 22041AQ  23025.67433388  .00000997  00000-0  80750-4 0  9999,2 52299  53.2158 172.3708 0002204  70.6366 289.4865 15.08838587 42558,6917.885,95.438,541.274,538.225,0.0
52299.0,STARLINK-3759,PAYLOAD,2023-01-26 14:26:26,15.08842847,0.0002186,53.2161,168.2077,72.5759,287.5471,0.00012821,1.753e-05,0.0,0 STARLINK-3759,1 52299U 22041AQ  23026.60169080  .00001753  00000-0  12821-3 0  9992,2 52299  53.2161 168.2077 0002186  72.5759 287.5471 15.08842847 43918,6917.871999999999,95.437,541.249,538.224,0.0
52299.0,STARLINK-3759,PAYLOAD,2023-01-27 14:17:14,15.08823196,0.000202,53.218,163.7483,82.0483,278.0738,0.00019961,2.889e-05,0.0,0 STARLINK-3759,1 52299U 22041AQ  23027.59530283  .00002889  00000-0  19961-3 0  9991,2 52299  53.2180 163.7483 0002020  82.0483 278.0738 15.08823196 44061,6917.932,95.439,541.194,538.399,0.0
52299.0,STARLINK-3759,PAYLOAD,2023-01-27 19:03:22,15.08840021,0.000199,53.2163,162.85399999999998,79.46600000000001,280.6556,6.1327e-05,6.88e-06,0.0,0 STARLINK-3759,1 52299U 22041AQ  23027.79401508  .00000688  00000-0  61327-4 0  9999,2 52299  53.2163 162.8540 0001990  79.4660 280.6556 15.08840021 44094,6917.88,95.438,541.122,538.369,0.0
52299.0,STARLINK-3759,PAYLOAD,2023-01-28 14:08:00,15.08843395,0.000213,53.216,159.2854,83.3573,276.7662,3.7853e-05,3.14e-06,0.0,0 STARLINK-3759,1 52299U 22041AQ  23028.58889461  .00000314  00000-0  37853-4 0  9998,2 52299  53.2160 159.2854 0002130  83.3573 276.7662 15.08843395 42991,6917.87,95.437,541.209,538.262,0.0
52299.0,STARLINK-3759,PAYLOAD,2023-01-28 18:54:09,15.08844744,0.0002211,53.216,158.394,86.179,273.9455,6.6038e-05,7.63e-06,0.0,0 STARLINK-3759,1 52299U 22041AQ  23028.78761284  .00000763  00000-0  66038-4 0  9997,2 52299  53.2160 158.3940 0002211  86.1790 273.9455 15.08844744 43022,6917.866,95.437,541.26,538.201,0.0
52299.0,STARLINK-3759,PAYLOAD,2023-01-29 01:15:42,15.08834341,0.0001938,53.2157,157.2026,80.4913,279.6298,6.7084e-05,7.79e-06,0.0,0 STARLINK-3759,1 52299U 22041AQ  23029.05257995  .00000779  00000-0  67084-4 0  9996,2 52299  53.2157 157.2026 0001938  80.4913 279.6298 15.08834341 44289,6917.898,95.438,541.103,538.422,0.0
52299.0,STARLINK-3759,PAYLOAD,2023-01-29 17:09:34,15.08835893,0.0002071,53.217,154.2299,81.7903,278.3324,2.4767e-05,1.06e-06,0.0,0 STARLINK-3759,1 52299U 22041AQ  23029.71498349  .00000106  00000-0  24767-4 0  9994,2 52299  53.2170 154.2299 0002071  81.7903 278.3324 15.08835893 43160,6917.893,95.438,541.191,538.325,0.0
52299.0,STARLINK-3759,PAYLOAD,2023-01-30 07:28:01,15.08845587,0.0001638,53.2154,151.5545,78.7439,281.3737,0.00014834,2.074e-05,0.0,0 STARLINK-3759,1 52299U 22041AQ  23030.31113299  .00002074  00000-0  14834-3 0  9999,2 52299  53.2154 151.5545 0001638  78.7439 281.3737 15.08845587 44472,6917.863,95.437,540.861,538.595,0.0
52299.0,STARLINK-3759,PAYLOAD,2023-01-30 09:03:24,15.08853313,0.0001862,53.2153,151.2577,78.9802,281.14,0.00016823,2.391e-05,0.0,0 STARLINK-3759,1 52299U 22041AQ  23030.37736769  .00002391  00000-0  16823-3 0  9990,2 52299  53.2153 151.2577 0001862  78.9802 281.1400 15.08853313 44480,6917.84,95.437,540.993,538.417,0.0
52299.0,STARLINK-3759,PAYLOAD,2023-01-30 12:14:10,15.08861005,0.0002104,53.2172,150.6644,79.4189,280.704,0.00022421,3.284e-05,0.0,0 STARLINK-3759,1 52299U 22041AQ  23030.50984067  .00003284  00000-0  22421-3 0  9994,2 52299  53.2172 150.6644 0002104  79.4189 280.7040 15.08861005 43282,6917.816,95.436,541.137,538.226,0.0
52299.0,STARLINK-3759,PAYLOAD,2023-01-31 00:57:15,15.08849322,0.0002394,53.2185,148.2828,82.1495,277.9769,0.00011583,1.556e-05,0.0,0 STARLINK-3759,1 52299U 22041AQ  23031.03976708  .00001556  00000-0  11583-3 0  9993,2 52299  53.2185 148.2828 0002394  82.1495 277.9769 15.08849322 44583,6917.852,95.437,541.373,538.061,0.0
